CCSDS_OMM_VERS = 2.0
CREATION_DATE  = 
ORIGINATOR     = 

OBJECT_NAME    = STARLINK-35758
OBJECT_ID      = 2025-244Z
CENTER_NAME    = EARTH
REF_FRAME      = TEME
TIME_SYSTEM    = UTC
MEAN_ELEMENT_THEORY = SGP/SGP4

EPOCH          = 2025-11-13T20:00:01.999008
MEAN_MOTION    = 15.61218658
ECCENTRICITY   = .0001144
INCLINATION    = 53.1593
RA_OF_ASC_NODE = 52.7464
ARG_OF_PERICENTER = 48.7144
MEAN_ANOMALY   = 9.9075

EPHEMERIS_TYPE = 0
CLASSIFICATION_TYPE = U
NORAD_CAT_ID   = 66229
ELEMENT_SET_NO = 999
REV_AT_EPOCH   = 356
BSTAR          = -.26514E-1
MEAN_MOTION_DOT = -.2008059E-1
MEAN_MOTION_DDOT = 0

CCSDS_OMM_VERS = 2.0
CREATION_DATE  = 
ORIGINATOR     = 

OBJECT_NAME    = STARLINK-35736
OBJECT_ID      = 2025-244AA
CENTER_NAME    = EARTH
REF_FRAME      = TEME
TIME_SYSTEM    = UTC
MEAN_ELEMENT_THEORY = SGP/SGP4

EPOCH          = 2025-11-13T20:00:01.999008
MEAN_MOTION    = 15.61216646
ECCENTRICITY   = .0001171
INCLINATION    = 53.1592
RA_OF_ASC_NODE = 52.7424
ARG_OF_PERICENTER = 47.6370
MEAN_ANOMALY   = 12.9027

EPHEMERIS_TYPE = 0
CLASSIFICATION_TYPE = U
NORAD_CAT_ID   = 66230
ELEMENT_SET_NO = 999
REV_AT_EPOCH   = 356
BSTAR          = -.2648E-1
MEAN_MOTION_DOT = -.2005705E-1
MEAN_MOTION_DDOT = 0

CCSDS_OMM_VERS = 2.0
CREATION_DATE  = 
ORIGINATOR     = 

OBJECT_NAME    = STARLINK-35735
OBJECT_ID      = 2025-244AB
CENTER_NAME    = EARTH
REF_FRAME      = TEME
TIME_SYSTEM    = UTC
MEAN_ELEMENT_THEORY = SGP/SGP4

EPOCH          = 2025-11-13T20:00:01.999008
MEAN_MOTION    = 15.61217288
ECCENTRICITY   = .0001184
INCLINATION    = 53.1591
RA_OF_ASC_NODE = 52.7382
ARG_OF_PERICENTER = 49.3222
MEAN_ANOMALY   = 13.1344

EPHEMERIS_TYPE = 0
CLASSIFICATION_TYPE = U
NORAD_CAT_ID   = 66231
ELEMENT_SET_NO = 999
REV_AT_EPOCH   = 356
BSTAR          = -.26492E-1
MEAN_MOTION_DOT = -.2006536E-1
MEAN_MOTION_DDOT = 0

CCSDS_OMM_VERS = 2.0
CREATION_DATE  = 
ORIGINATOR     = 

OBJECT_NAME    = STARLINK-35753
OBJECT_ID      = 2025-244AC
CENTER_NAME    = EARTH
REF_FRAME      = TEME
TIME_SYSTEM    = UTC
MEAN_ELEMENT_THEORY = SGP/SGP4

EPOCH          = 2025-11-13T20:00:01.999008
MEAN_MOTION    = 15.61221268
ECCENTRICITY   = .0001196
INCLINATION    = 53.1592
RA_OF_ASC_NODE = 52.7355
ARG_OF_PERICENTER = 52.8713
MEAN_ANOMALY   = 11.5011

EPHEMERIS_TYPE = 0
CLASSIFICATION_TYPE = U
NORAD_CAT_ID   = 66232
ELEMENT_SET_NO = 999
REV_AT_EPOCH   = 356
BSTAR          = -.26583E-1
MEAN_MOTION_DOT = -.2012855E-1
MEAN_MOTION_DDOT = 0

CCSDS_OMM_VERS = 2.0
CREATION_DATE  = 
ORIGINATOR     = 

OBJECT_NAME    = STARLINK-35626
OBJECT_ID      = 2025-244AD
CENTER_NAME    = EARTH
REF_FRAME      = TEME
TIME_SYSTEM    = UTC
MEAN_ELEMENT_THEORY = SGP/SGP4

EPOCH          = 2025-11-13T20:00:01.999008
MEAN_MOTION    = 15.61218999
ECCENTRICITY   = .0001242
INCLINATION    = 53.1593
RA_OF_ASC_NODE = 52.7310
ARG_OF_PERICENTER = 52.6559
MEAN_ANOMALY   = 13.6352

EPHEMERIS_TYPE = 0
CLASSIFICATION_TYPE = U
NORAD_CAT_ID   = 66233
ELEMENT_SET_NO = 999
REV_AT_EPOCH   = 372
BSTAR          = -.26552E-1
MEAN_MOTION_DOT = -.2010706E-1
MEAN_MOTION_DDOT = 0

CCSDS_OMM_VERS = 2.0
CREATION_DATE  = 
ORIGINATOR     = 

OBJECT_NAME    = STARLINK-35537
OBJECT_ID      = 2025-245A
CENTER_NAME    = EARTH
REF_FRAME      = TEME
TIME_SYSTEM    = UTC
MEAN_ELEMENT_THEORY = SGP/SGP4

EPOCH          = 2025-11-13T20:00:01.999008
MEAN_MOTION    = 15.74189839
ECCENTRICITY   = .0001145
INCLINATION    = 53.1565
RA_OF_ASC_NODE = 107.2525
ARG_OF_PERICENTER = 93.8345
MEAN_ANOMALY   = 324.0054

EPHEMERIS_TYPE = 0
CLASSIFICATION_TYPE = U
NORAD_CAT_ID   = 66234
ELEMENT_SET_NO = 999
REV_AT_EPOCH   = 346
BSTAR          = -.2192E-3
MEAN_MOTION_DOT = -.32608E-3
MEAN_MOTION_DDOT = 0

CCSDS_OMM_VERS = 2.0
CREATION_DATE  = 
ORIGINATOR     = 

OBJECT_NAME    = STARLINK-35541
OBJECT_ID      = 2025-245B
CENTER_NAME    = EARTH
REF_FRAME      = TEME
TIME_SYSTEM    = UTC
MEAN_ELEMENT_THEORY = SGP/SGP4

EPOCH          = 2025-11-13T20:00:01.999008
MEAN_MOTION    = 15.74178654
ECCENTRICITY   = .000124
INCLINATION    = 53.1564
RA_OF_ASC_NODE = 107.2480
ARG_OF_PERICENTER = 81.3387
MEAN_ANOMALY   = 338.4236

EPHEMERIS_TYPE = 0
CLASSIFICATION_TYPE = U
NORAD_CAT_ID   = 66235
ELEMENT_SET_NO = 999
REV_AT_EPOCH   = 340
BSTAR          = -.2358E-3
MEAN_MOTION_DOT = -.35004E-3
MEAN_MOTION_DDOT = 0

CCSDS_OMM_VERS = 2.0
CREATION_DATE  = 
ORIGINATOR     = 

OBJECT_NAME    = STARLINK-35454
OBJECT_ID      = 2025-245C
CENTER_NAME    = EARTH
REF_FRAME      = TEME
TIME_SYSTEM    = UTC
MEAN_ELEMENT_THEORY = SGP/SGP4

EPOCH          = 2025-11-13T20:00:01.999008
MEAN_MOTION    = 15.74133038
ECCENTRICITY   = .0001342
INCLINATION    = 53.1567
RA_OF_ASC_NODE = 107.2438
ARG_OF_PERICENTER = 72.4293
MEAN_ANOMALY   = 349.2640

EPHEMERIS_TYPE = 0
CLASSIFICATION_TYPE = U
NORAD_CAT_ID   = 66236
ELEMENT_SET_NO = 999
REV_AT_EPOCH   = 329
BSTAR          = .54823E-3
MEAN_MOTION_DOT = .80234E-3
MEAN_MOTION_DDOT = 0

CCSDS_OMM_VERS = 2.0
CREATION_DATE  = 
ORIGINATOR     = 

OBJECT_NAME    = STARLINK-35557
OBJECT_ID      = 2025-245D
CENTER_NAME    = EARTH
REF_FRAME      = TEME
TIME_SYSTEM    = UTC
MEAN_ELEMENT_THEORY = SGP/SGP4

EPOCH          = 2025-11-13T20:00:01.999008
MEAN_MOTION    = 15.74115111
ECCENTRICITY   = .0001166
INCLINATION    = 53.1565
RA_OF_ASC_NODE = 107.2396
ARG_OF_PERICENTER = 88.3313
MEAN_ANOMALY   = 335.2875

EPHEMERIS_TYPE = 0
CLASSIFICATION_TYPE = U
NORAD_CAT_ID   = 66237
ELEMENT_SET_NO = 999
REV_AT_EPOCH   = 346
BSTAR          = .74565E-3
MEAN_MOTION_DOT = .109652E-2
MEAN_MOTION_DDOT = 0

CCSDS_OMM_VERS = 2.0
CREATION_DATE  = 
ORIGINATOR     = 

OBJECT_NAME    = STARLINK-35556
OBJECT_ID      = 2025-245E
CENTER_NAME    = EARTH
REF_FRAME      = TEME
TIME_SYSTEM    = UTC
MEAN_ELEMENT_THEORY = SGP/SGP4

EPOCH          = 2025-11-13T20:00:01.999008
MEAN_MOTION    = 15.74207883
ECCENTRICITY   = .0000782
INCLINATION    = 53.1559
RA_OF_ASC_NODE = 107.2357
ARG_OF_PERICENTER = 16.4802
MEAN_ANOMALY   = 49.0478

EPHEMERIS_TYPE = 0
CLASSIFICATION_TYPE = U
NORAD_CAT_ID   = 66238
ELEMENT_SET_NO = 999
REV_AT_EPOCH   = 346
BSTAR          = .35851E-3
MEAN_MOTION_DOT = .52245E-3
MEAN_MOTION_DDOT = 0

CCSDS_OMM_VERS = 2.0
CREATION_DATE  = 
ORIGINATOR     = 

OBJECT_NAME    = STARLINK-35554
OBJECT_ID      = 2025-245F
CENTER_NAME    = EARTH
REF_FRAME      = TEME
TIME_SYSTEM    = UTC
MEAN_ELEMENT_THEORY = SGP/SGP4

EPOCH          = 2025-11-13T20:00:01.999008
MEAN_MOTION    = 15.74039449
ECCENTRICITY   = .0000959
INCLINATION    = 53.1562
RA_OF_ASC_NODE = 107.2314
ARG_OF_PERICENTER = 84.1800
MEAN_ANOMALY   = 343.4087

EPHEMERIS_TYPE = 0
CLASSIFICATION_TYPE = U
NORAD_CAT_ID   = 66239
ELEMENT_SET_NO = 999
REV_AT_EPOCH   = 329
BSTAR          = .9802E-3
MEAN_MOTION_DOT = .144471E-2
MEAN_MOTION_DDOT = 0

CCSDS_OMM_VERS = 2.0
CREATION_DATE  = 
ORIGINATOR     = 

OBJECT_NAME    = STARLINK-35546
OBJECT_ID      = 2025-245G
CENTER_NAME    = EARTH
REF_FRAME      = TEME
TIME_SYSTEM    = UTC
MEAN_ELEMENT_THEORY = SGP/SGP4

EPOCH          = 2025-11-13T20:00:01.999008
MEAN_MOTION    = 15.74127999
ECCENTRICITY   = .000123
INCLINATION    = 53.1569
RA_OF_ASC_NODE = 107.2273
ARG_OF_PERICENTER = 54.5025
MEAN_ANOMALY   = 14.8447

EPHEMERIS_TYPE = 0
CLASSIFICATION_TYPE = U
NORAD_CAT_ID   = 66240
ELEMENT_SET_NO = 999
REV_AT_EPOCH   = 346
BSTAR          = .71548E-3
MEAN_MOTION_DOT = .105193E-2
MEAN_MOTION_DDOT = 0

