STARLINK-35758          
1 66229U 25244Z   25317.83335647 -.02008059  00000+0 -26514-1 0  9993
2 66229  53.1593  52.7464 0001144  48.7144   9.9075 15.61218658  3566
STARLINK-35736          
1 66230U 25244AA  25317.83335647 -.02005705  00000+0 -26480-1 0  9992
2 66230  53.1592  52.7424 0001171  47.6370  12.9027 15.61216646  3568
STARLINK-35735          
1 66231U 25244AB  25317.83335647 -.02006536  00000+0 -26492-1 0  9999
2 66231  53.1591  52.7382 0001184  49.3222  13.1344 15.61217288  3568
STARLINK-35753          
1 66232U 25244AC  25317.83335647 -.02012855  00000+0 -26583-1 0  9992
2 66232  53.1592  52.7355 0001196  52.8713  11.5011 15.61221268  3563
STARLINK-35626          
1 66233U 25244AD  25317.83335647 -.02010706  00000+0 -26552-1 0  9992
2 66233  53.1593  52.7310 0001242  52.6559  13.6352 15.61218999  3720
STARLINK-35537          
1 66234U 25245A   25317.83335647 -.00032608  00000+0 -21920-3 0  9993
2 66234  53.1565 107.2525 0001145  93.8345 324.0054 15.74189839  3469
STARLINK-35541          
1 66235U 25245B   25317.83335647 -.00035004  00000+0 -23580-3 0  9991
2 66235  53.1564 107.2480 0001240  81.3387 338.4236 15.74178654  3401
STARLINK-35454          
1 66236U 25245C   25317.83335647  .00080234  00000+0  54823-3 0  9999
2 66236  53.1567 107.2438 0001342  72.4293 349.2640 15.74133038  3291
STARLINK-35557          
1 66237U 25245D   25317.83335647  .00109652  00000+0  74565-3 0  9991
2 66237  53.1565 107.2396 0001166  88.3313 335.2875 15.74115111  3462
STARLINK-35556          
1 66238U 25245E   25317.83335647  .00052245  00000+0  35851-3 0  9992
2 66238  53.1559 107.2357 0000782  16.4802  49.0478 15.74207883  3468
STARLINK-35554          
1 66239U 25245F   25317.83335647  .00144471  00000+0  98020-3 0  9993
2 66239  53.1562 107.2314 0000959  84.1800 343.4087 15.74039449  3291
STARLINK-35546          
1 66240U 25245G   25317.83335647  .00105193  00000+0  71548-3 0  9999
2 66240  53.1569 107.2273 0001230  54.5025  14.8447 15.74127999  3463
